GLOBALSTAR M067         
1 32263U 07048A   25199.58082304 -.00000067  00000+0  22496-3 0  9990
2 32263  51.9743 304.0736 0001362  78.3281 295.0723 12.40674384813381
GLOBALSTAR M070         
1 32264U 07048B   25199.56490689 -.00000098  00000+0  30170-4 0  9991
2 32264  51.9762  32.9137 0000812  93.3319 305.2310 12.62320197817635
GLOBALSTAR M066         
1 32265U 07048C   25199.58108828 -.00000076  00000+0  15299-3 0  9995
2 32265  51.9629 295.5450 0004992  38.2731 334.8827 12.30007515819164
GLOBALSTAR M068         
1 32266U 07048D   25199.43386155 -.00000088  00000+0  88704-4 0  9996
2 32266  51.9856 207.0067 0001011 203.1438 304.6945 12.62826443821506
GLOBALSTAR M079         
1 37188U 10054A   25199.52837214 -.00000111  00000+0 -41701-4 0  9996
2 37188  52.0048  44.3782 0000939  59.7841 337.1723 12.62265453680412
GLOBALSTAR M074         
1 37189U 10054B   25199.34721247 -.00000105  00000+0 -75706-5 0  9991
2 37189  52.0028  44.2498 0000980  79.1475  92.5306 12.62266674680997
GLOBALSTAR M076         
1 37190U 10054C   25199.58103788 -.00000089  00000+0  82798-4 0  9991
2 37190  52.0040  43.7100 0001080  71.2682 324.3405 12.62263715680744
GLOBALSTAR M077         
1 37191U 10054D   25199.48887454 -.00000106  00000+0 -11644-4 0  9993
2 37191  52.0091   0.8557 0000861  94.8072 302.3197 12.62268821681109
